{
    "links": {
        "self": "http://www.neowsapp.com/rest/v1/neo/3574819?api_key=iIulBulltgU6a56xZRHN4H3l9WmuAYTsLGpBGhQ2"
    },
    "id": "3574819",
    "neo_reference_id": "3574819",
    "name": "(2011 OF26)",
    "designation": "2011 OF26",
    "nasa_jpl_url": "http://ssd.jpl.nasa.gov/sbdb.cgi?sstr=3574819",
    "absolute_magnitude_h": 24.8,
    "estimated_diameter": {
        "kilometers": {
            "estimated_diameter_min": 0.0291443905,
            "estimated_diameter_max": 0.0651688382
        },
        "meters": {
            "estimated_diameter_min": 29.1443904535,
            "estimated_diameter_max": 65.1688382168
        },
        "miles": {
            "estimated_diameter_min": 0.018109479,
            "estimated_diameter_max": 0.0404940262
        },
        "feet": {
            "estimated_diameter_min": 95.6180819754,
            "estimated_diameter_max": 213.8085311752
        }
    },
    "is_potentially_hazardous_asteroid": false,
    "close_approach_data": [
        {
            "close_approach_date": "2011-08-07",
            "close_approach_date_full": "2011-Aug-07 11:21",
            "epoch_date_close_approach": 1312716060000,
            "relative_velocity": {
                "kilometers_per_second": "22.1005388524",
                "kilometers_per_hour": "79561.9398687703",
                "miles_per_hour": "49436.6953590145"
            },
            "miss_distance": {
                "astronomical": "0.0302431029",
                "lunar": "11.7645670281",
                "kilometers": "4524303.776030823",
                "miles": "2811272.0060104374"
            },
            "orbiting_body": "Earth"
        }
    ],
    "orbital_data": {
        "orbit_id": "6",
        "orbit_determination_date": "2017-04-06 08:53:04",
        "first_observation_date": "2011-07-28",
        "last_observation_date": "2011-08-07",
        "data_arc_in_days": 10,
        "observations_used": 17,
        "orbit_uncertainty": "9",
        "minimum_orbit_intersection": ".0210512",
        "jupiter_tisserand_invariant": "3.329",
        "epoch_osculation": "2455772.5",
        "eccentricity": ".7255696023056599",
        "semi_major_axis": "2.118534687296408",
        "inclination": "6.054256289127815",
        "ascending_node_longitude": "303.6462009126396",
        "orbital_period": "1126.294065190184",
        "perihelion_distance": ".5813903167640075",
        "perihelion_argument": "103.0773335400931",
        "aphelion_distance": "3.655679057828808",
        "perihelion_time": "2455828.592443326403",
        "mean_anomaly": "342.0710414610102",
        "mean_motion": ".3196323332656567",
        "equinox": "J2000",
        "orbit_class": {
            "orbit_class_type": "APO",
            "orbit_class_description": "Near-Earth asteroid orbits which cross the Earth’s orbit similar to that of 1862 Apollo",
            "orbit_class_range": "a (semi-major axis) > 1.0 AU; q (perihelion) < 1.017 AU"
        }
    },
    "is_sentry_object": false
}